start=new Date('2022-01-02T00:00:00.000Z').valueOf();
sats=[{"EPHEMERIS_TYPE":"0","TLE_LINE1":"1 47575U 21009AD  22001.15008274  .00005671  00000-0  39966-3 0  9997","MEAN_MOTION_DOT":"0.00005671","PERIAPSIS":"546.386","REV_AT_EPOCH":"5012","RA_OF_ASC_NODE":"63.4946","DECAY_DATE":null,"APOAPSIS":"548.249","COUNTRY_CODE":"US","OBJECT_TYPE":"PAYLOAD","FILE":"3255244","SEMIMAJOR_AXIS":"6925.452","LAUNCH_DATE":"2021-02-04","ECCENTRICITY":"0.00013450","OBJECT_NAME":"STARLINK-1977","MEAN_ELEMENT_THEORY":"SGP4","SITE":"AFETR","CLASSIFICATION_TYPE":"U","OBJECT_ID":"2021-009AD","EPOCH":"2022-01-01T03:36:07.148736","MEAN_MOTION_DDOT":"0.0000000000000","MEAN_ANOMALY":"267.0831","TLE_LINE2":"2 47575  53.0561  63.4946 0001345  93.0312 267.0831 15.06366112 50129","NORAD_CAT_ID":"47575","ARG_OF_PERICENTER":"93.0312","CENTER_NAME":"EARTH","GP_ID":"192868044","RCS_SIZE":"LARGE","ELEMENT_SET_NO":"999","INCLINATION":"53.0561","REF_FRAME":"TEME","MEAN_MOTION":"15.06366112","BSTAR":"0.00039966000000","PERIOD":"95.594","TIME_SYSTEM":"UTC"},{"REF_FRAME":"TEME","INCLINATION":"53.0542","ELEMENT_SET_NO":"999","RCS_SIZE":"LARGE","TIME_SYSTEM":"UTC","BSTAR":"0.00029773000000","PERIOD":"95.593","MEAN_MOTION":"15.06392285","MEAN_MOTION_DDOT":"0.0000000000000","EPOCH":"2022-01-01T15:32:39.203808","OBJECT_ID":"2021-009AE","CLASSIFICATION_TYPE":"U","GP_ID":"192893213","CENTER_NAME":"EARTH","ARG_OF_PERICENTER":"62.2912","NORAD_CAT_ID":"47576","TLE_LINE2":"2 47576  53.0542  21.2637 0001525  62.2912 297.8232 15.06392285 50768","MEAN_ANOMALY":"297.8232","ECCENTRICITY":"0.00015250","LAUNCH_DATE":"2021-02-04","SITE":"AFETR","MEAN_ELEMENT_THEORY":"SGP4","OBJECT_NAME":"STARLINK-1978","RA_OF_ASC_NODE":"21.2637","REV_AT_EPOCH":"5076","PERIAPSIS":"546.181","MEAN_MOTION_DOT":"0.00004155","TLE_LINE1":"1 47576U 21009AE  22001.64767597  .00004155  00000-0  29773-3 0  9993","EPHEMERIS_TYPE":"0","SEMIMAJOR_AXIS":"6925.372","FILE":"3255246","OBJECT_TYPE":"PAYLOAD","APOAPSIS":"548.293","COUNTRY_CODE":"US","DECAY_DATE":null},{"DECAY_DATE":null,"OBJECT_TYPE":"PAYLOAD","APOAPSIS":"548.314","COUNTRY_CODE":"US","FILE":"3255244","SEMIMAJOR_AXIS":"6925.379","EPHEMERIS_TYPE":"0","TLE_LINE1":"1 47577U 21009AF  22001.29060298  .00001881  00000-0  14518-3 0  9993","PERIAPSIS":"546.175","REV_AT_EPOCH":"5050","MEAN_MOTION_DOT":"0.00001881","RA_OF_ASC_NODE":"37.8804","OBJECT_NAME":"STARLINK-1979","MEAN_ELEMENT_THEORY":"SGP4","SITE":"AFETR","LAUNCH_DATE":"2021-02-04","ECCENTRICITY":"0.00015440","TLE_LINE2":"2 47577  53.0541  37.8804 0001544  82.0337 278.0828 15.06389937 50503","MEAN_ANOMALY":"278.0828","NORAD_CAT_ID":"47577","ARG_OF_PERICENTER":"82.0337","GP_ID":"192869546","CENTER_NAME":"EARTH","CLASSIFICATION_TYPE":"U","OBJECT_ID":"2021-009AF","MEAN_MOTION_DDOT":"0.0000000000000","EPOCH":"2022-01-01T06:58:28.097472","MEAN_MOTION":"15.06389937","TIME_SYSTEM":"UTC","PERIOD":"95.593","BSTAR":"0.00014518000000","RCS_SIZE":"LARGE","ELEMENT_SET_NO":"999","INCLINATION":"53.0541","REF_FRAME":"TEME"},{"INCLINATION":"53.0554","REF_FRAME":"TEME","RCS_SIZE":"LARGE","ELEMENT_SET_NO":"999","TIME_SYSTEM":"UTC","PERIOD":"95.593","BSTAR":"0.00044590000000","MEAN_MOTION":"15.06386926","OBJECT_ID":"2021-009AG","MEAN_MOTION_DDOT":"0.0000000000000","EPOCH":"2022-01-01T06:49:50.715264","CLASSIFICATION_TYPE":"U","ARG_OF_PERICENTER":"82.2308","GP_ID":"192869287","CENTER_NAME":"EARTH","TLE_LINE2":"2 47578  53.0554  42.8891 0001515  82.2308 277.8853 15.06386926 50429","MEAN_ANOMALY":"277.8853","NORAD_CAT_ID":"47578","ECCENTRICITY":"0.00015150","LAUNCH_DATE":"2021-02-04","MEAN_ELEMENT_THEORY":"SGP4","SITE":"AFETR","OBJECT_NAME":"STARLINK-1980","REV_AT_EPOCH":"5042","PERIAPSIS":"546.204","MEAN_MOTION_DOT":"0.00006364","RA_OF_ASC_NODE":"42.8891","EPHEMERIS_TYPE":"0","TLE_LINE1":"1 47578U 21009AG  22001.28461476  .00006364  00000-0  44590-3 0  9990","FILE":"3255244","SEMIMAJOR_AXIS":"6925.389","DECAY_DATE":null,"OBJECT_TYPE":"PAYLOAD","COUNTRY_CODE":"US","APOAPSIS":"548.303"},{"EPOCH":"2022-01-01T11:11:15.502560","MEAN_MOTION_DDOT":"0.0000000000000","OBJECT_ID":"2021-009AH","CLASSIFICATION_TYPE":"U","CENTER_NAME":"EARTH","GP_ID":"192868545","ARG_OF_PERICENTER":"88.2732","NORAD_CAT_ID":"47579","MEAN_ANOMALY":"271.8502","TLE_LINE2":"2 47579  53.0565  32.0794 0002134  88.2732 271.8502 15.06376394 50591","REF_FRAME":"TEME","INCLINATION":"53.0565","ELEMENT_SET_NO":"999","RCS_SIZE":"LARGE","BSTAR":"0.00046677000000","PERIOD":"95.594","TIME_SYSTEM":"UTC","MEAN_MOTION":"15.06376394","RA_OF_ASC_NODE":"32.0794","MEAN_MOTION_DOT":"0.00006673","PERIAPSIS":"545.808","REV_AT_EPOCH":"5059","TLE_LINE1":"1 47579U 21009AH  22001.46615165  .00006673  00000-0  46677-3 0  9998","EPHEMERIS_TYPE":"0","SEMIMAJOR_AXIS":"6925.421","FILE":"3255244","COUNTRY_CODE":"US","APOAPSIS":"548.764","OBJECT_TYPE":"PAYLOAD","DECAY_DATE":null,"ECCENTRICITY":"0.00021340","LAUNCH_DATE":"2021-02-04","SITE":"AFETR","MEAN_ELEMENT_THEORY":"SGP4","OBJECT_NAME":"STARLINK-1981"},{"OBJECT_NAME":"STARLINK-1982","MEAN_ELEMENT_THEORY":"SGP4","SITE":"AFETR","LAUNCH_DATE":"2021-02-04","ECCENTRICITY":"0.00013770","DECAY_DATE":null,"APOAPSIS":"548.195","COUNTRY_CODE":"US","OBJECT_TYPE":"PAYLOAD","FILE":"3255244","SEMIMAJOR_AXIS":"6925.376","EPHEMERIS_TYPE":"0","TLE_LINE1":"1 47580U 21009AJ  22001.28829901  .00000960  00000-0  83366-4 0  9995","MEAN_MOTION_DOT":"0.00000960","PERIAPSIS":"546.288","REV_AT_EPOCH":"5042","RA_OF_ASC_NODE":"42.8686","MEAN_MOTION":"15.06390942","BSTAR":"0.00008336600000","PERIOD":"95.593","TIME_SYSTEM":"UTC","RCS_SIZE":"LARGE","ELEMENT_SET_NO":"999","INCLINATION":"53.0568","REF_FRAME":"TEME","MEAN_ANOMALY":"288.9891","TLE_LINE2":"2 47580  53.0568  42.8686 0001377  71.1248 288.9891 15.06390942 50423","NORAD_CAT_ID":"47580","ARG_OF_PERICENTER":"71.1248","CENTER_NAME":"EARTH","GP_ID":"192868795","CLASSIFICATION_TYPE":"U","OBJECT_ID":"2021-009AJ","EPOCH":"2022-01-01T06:55:09.034464","MEAN_MOTION_DDOT":"0.0000000000000"},{"LAUNCH_DATE":"2021-02-04","ECCENTRICITY":"0.00014220","OBJECT_NAME":"STARLINK-1984","SITE":"AFETR","MEAN_ELEMENT_THEORY":"SGP4","TLE_LINE1":"1 47581U 21009AK  22001.46706111  .00000643  00000-0  62034-4 0  9990","EPHEMERIS_TYPE":"0","RA_OF_ASC_NODE":"22.0763","MEAN_MOTION_DOT":"0.00000643","PERIAPSIS":"546.232","REV_AT_EPOCH":"5073","APOAPSIS":"548.201","COUNTRY_CODE":"US","OBJECT_TYPE":"PAYLOAD","DECAY_DATE":null,"SEMIMAJOR_AXIS":"6925.351","FILE":"3255244","ELEMENT_SET_NO":"999","RCS_SIZE":"LARGE","REF_FRAME":"TEME","INCLINATION":"53.0572","MEAN_MOTION":"15.06399103","BSTAR":"0.00006203400000","PERIOD":"95.592","TIME_SYSTEM":"UTC","CLASSIFICATION_TYPE":"U","EPOCH":"2022-01-01T11:12:34.079904","MEAN_MOTION_DDOT":"0.0000000000000","OBJECT_ID":"2021-009AK","NORAD_CAT_ID":"47581","MEAN_ANOMALY":"284.3382","TLE_LINE2":"2 47581  53.0572  22.0763 0001422  75.7765 284.3382 15.06399103 50737","CENTER_NAME":"EARTH","GP_ID":"192869046","ARG_OF_PERICENTER":"75.7765"},{"MEAN_ELEMENT_THEORY":"SGP4","SITE":"AFETR","OBJECT_NAME":"STARLINK-1986","ECCENTRICITY":"0.00013450","LAUNCH_DATE":"2021-02-04","FILE":"3255244","SEMIMAJOR_AXIS":"6925.350","DECAY_DATE":null,"COUNTRY_CODE":"US","APOAPSIS":"548.146","OBJECT_TYPE":"PAYLOAD","MEAN_MOTION_DOT":"0.00000985","REV_AT_EPOCH":"5044","PERIAPSIS":"546.284","RA_OF_ASC_NODE":"42.4440","EPHEMERIS_TYPE":"0","TLE_LINE1":"1 47582U 21009AL  22001.38781234  .00000985  00000-0  84994-4 0  9999","BSTAR":"0.00008499400000","PERIOD":"95.592","TIME_SYSTEM":"UTC","MEAN_MOTION":"15.06399527","INCLINATION":"53.0554","REF_FRAME":"TEME","RCS_SIZE":"LARGE","ELEMENT_SET_NO":"999","ARG_OF_PERICENTER":"76.6540","CENTER_NAME":"EARTH","GP_ID":"192869788","MEAN_ANOMALY":"283.4599","TLE_LINE2":"2 47582  53.0554  42.4440 0001345  76.6540 283.4599 15.06399527 50449","NORAD_CAT_ID":"47582","OBJECT_ID":"2021-009AL","EPOCH":"2022-01-01T09:18:26.986176","MEAN_MOTION_DDOT":"0.0000000000000","CLASSIFICATION_TYPE":"U"},{"CENTER_NAME":"EARTH","GP_ID":"192868045","ARG_OF_PERICENTER":"71.5991","NORAD_CAT_ID":"47583","MEAN_ANOMALY":"288.5143","TLE_LINE2":"2 47583  53.0544  41.6395 0001340  71.5991 288.5143 15.06395029 50475","EPOCH":"2022-01-01T13:33:14.301504","MEAN_MOTION_DDOT":"0.0000000000000","OBJECT_ID":"2021-009AM","CLASSIFICATION_TYPE":"U","PERIOD":"95.592","BSTAR":"0.00020868000000","TIME_SYSTEM":"UTC","MEAN_MOTION":"15.06395029","REF_FRAME":"TEME","INCLINATION":"53.0544","ELEMENT_SET_NO":"999","RCS_SIZE":"LARGE","SEMIMAJOR_AXIS":"6925.364","FILE":"3255244","COUNTRY_CODE":"US","APOAPSIS":"548.157","OBJECT_TYPE":"PAYLOAD","DECAY_DATE":null,"RA_OF_ASC_NODE":"41.6395","MEAN_MOTION_DOT":"0.00002828","REV_AT_EPOCH":"5047","PERIAPSIS":"546.301","TLE_LINE1":"1 47583U 21009AM  22001.56474886  .00002828  00000-0  20868-3 0  9999","EPHEMERIS_TYPE":"0","SITE":"AFETR","MEAN_ELEMENT_THEORY":"SGP4","OBJECT_NAME":"STARLINK-1987","ECCENTRICITY":"0.00013400","LAUNCH_DATE":"2021-02-04"},{"CLASSIFICATION_TYPE":"U","OBJECT_ID":"2021-009AN","MEAN_MOTION_DDOT":"0.0000000000000","EPOCH":"2022-01-01T07:33:15.314976","TLE_LINE2":"2 47584  53.0522 304.4115 0002844   7.9483 352.1575 15.63002710 51812","MEAN_ANOMALY":"352.1575","NORAD_CAT_ID":"47584","ARG_OF_PERICENTER":"7.9483","GP_ID":"192868295","CENTER_NAME":"EARTH","RCS_SIZE":"LARGE","ELEMENT_SET_NO":"999","INCLINATION":"53.0522","REF_FRAME":"TEME","MEAN_MOTION":"15.63002710","TIME_SYSTEM":"UTC","PERIOD":"92.130","BSTAR":"0.00060601000000","EPHEMERIS_TYPE":"0","TLE_LINE1":"1 47584U 21009AN  22001.31476059  .00055887  00000-0  60601-3 0  9999","PERIAPSIS":"377.069","REV_AT_EPOCH":"5181","MEAN_MOTION_DOT":"0.00055887","RA_OF_ASC_NODE":"304.4115","DECAY_DATE":null,"OBJECT_TYPE":"PAYLOAD","COUNTRY_CODE":"US","APOAPSIS":"380.913","FILE":"3255244","SEMIMAJOR_AXIS":"6757.126","LAUNCH_DATE":"2021-02-04","ECCENTRICITY":"0.00028440","OBJECT_NAME":"STARLINK-1988","MEAN_ELEMENT_THEORY":"SGP4","SITE":"AFETR"}];
